{
  "norad_id": 39469,
  "name": "SMDC ONE 2.4",
  "history": [
    {
      "epoch": "2026-03-28T19:35:22.538112Z",
      "apogee_km": 610.8447064373067,
      "perigee_km": 422.68218379997415,
      "latitude_deg": 2.8248798844426922e-05,
      "longitude_deg": -77.8870772686951,
      "height_km": 485.34804919312916,
      "semi_major_axis_km": 6894.90044511864,
      "eccentricity": 0.01364505,
      "inclination_deg": 120.4883,
      "raan_deg": 42.1881,
      "arg_perigee_deg": 289.8813,
      "mean_anomaly_deg": 68.7601,
      "mean_motion_rev_day": 15.16389478
    }
  ]
}